[{"OBJECT_NAME":"GAOFEN-9 03","OBJECT_ID":"2020-039A","EPOCH":"2026-03-09T21:55:15.121344","MEAN_MOTION":15.30529116,"ECCENTRICITY":0.0013094,"INCLINATION":97.5219,"RA_OF_ASC_NODE":201.2158,"ARG_OF_PERICENTER":77.4533,"MEAN_ANOMALY":282.8172,"EPHEMERIS_TYPE":0,"CLASSIFICATION_TYPE":"U","NORAD_CAT_ID":45794,"ELEMENT_SET_NO":999,"REV_AT_EPOCH":31856,"BSTAR":0.00039258132,"MEAN_MOTION_DOT":0.00011544,"MEAN_MOTION_DDOT":0},{"OBJECT_NAME":"STARLINK-32406","OBJECT_ID":"2024-184P","EPOCH":"2026-03-09T05:14:52.855584","MEAN_MOTION":15.3019186,"ECCENTRICITY":0.00010421,"INCLINATION":53.1609,"RA_OF_ASC_NODE":16.2206,"ARG_OF_PERICENTER":108.6313,"MEAN_ANOMALY":251.4801,"EPHEMERIS_TYPE":0,"CLASSIFICATION_TYPE":"U","NORAD_CAT_ID":61545,"ELEMENT_SET_NO":999,"REV_AT_EPOCH":7843,"BSTAR":-1.1875451e-5,"MEAN_MOTION_DOT":-7.11e-6,"MEAN_MOTION_DDOT":0}]
